{
    "links": {
        "self": "http://www.neowsapp.com/rest/v1/neo/3827314?api_key=iIulBulltgU6a56xZRHN4H3l9WmuAYTsLGpBGhQ2"
    },
    "id": "3827314",
    "neo_reference_id": "3827314",
    "name": "(2018 RT1)",
    "designation": "2018 RT1",
    "nasa_jpl_url": "http://ssd.jpl.nasa.gov/sbdb.cgi?sstr=3827314",
    "absolute_magnitude_h": 23.9,
    "estimated_diameter": {
        "kilometers": {
            "estimated_diameter_min": 0.04411182,
            "estimated_diameter_max": 0.0986370281
        },
        "meters": {
            "estimated_diameter_min": 44.1118199997,
            "estimated_diameter_max": 98.6370281305
        },
        "miles": {
            "estimated_diameter_min": 0.0274098057,
            "estimated_diameter_max": 0.0612901888
        },
        "feet": {
            "estimated_diameter_min": 144.7238235278,
            "estimated_diameter_max": 323.6123073718
        }
    },
    "is_potentially_hazardous_asteroid": false,
    "close_approach_data": [
        {
            "close_approach_date": "2018-08-17",
            "close_approach_date_full": "2018-Aug-17 03:06",
            "epoch_date_close_approach": 1534475160000,
            "relative_velocity": {
                "kilometers_per_second": "8.0475187387",
                "kilometers_per_hour": "28971.0674593922",
                "miles_per_hour": "18001.4946666429"
            },
            "miss_distance": {
                "astronomical": "0.1014008275",
                "lunar": "39.4449218975",
                "kilometers": "15169347.810237425",
                "miles": "9425795.649329465"
            },
            "orbiting_body": "Earth"
        },
        {
            "close_approach_date": "2021-09-19",
            "close_approach_date_full": "2021-Sep-19 12:13",
            "epoch_date_close_approach": 1632053580000,
            "relative_velocity": {
                "kilometers_per_second": "21.1049371049",
                "kilometers_per_hour": "75977.7735777448",
                "miles_per_hour": "47209.6338100159"
            },
            "miss_distance": {
                "astronomical": "0.4933227296",
                "lunar": "191.9025418144",
                "kilometers": "73800029.570745952",
                "miles": "45857211.9480880576"
            },
            "orbiting_body": "Earth"
        },
        {
            "close_approach_date": "2098-06-05",
            "close_approach_date_full": "2098-Jun-05 13:16",
            "epoch_date_close_approach": 4052812560000,
            "relative_velocity": {
                "kilometers_per_second": "16.4283399091",
                "kilometers_per_hour": "59142.0236728252",
                "miles_per_hour": "36748.5535427063"
            },
            "miss_distance": {
                "astronomical": "0.3447182519",
                "lunar": "134.0953999891",
                "kilometers": "51569116.234363453",
                "miles": "32043562.9482755314"
            },
            "orbiting_body": "Earth"
        }
    ],
    "orbital_data": {
        "orbit_id": "6",
        "orbit_determination_date": "2018-10-07 06:47:02",
        "first_observation_date": "2018-09-06",
        "last_observation_date": "2018-10-07",
        "data_arc_in_days": 31,
        "observations_used": 32,
        "orbit_uncertainty": "8",
        "minimum_orbit_intersection": ".0891596",
        "jupiter_tisserand_invariant": "3.559",
        "epoch_osculation": "2458372.5",
        "eccentricity": ".504460303272393",
        "semi_major_axis": "2.112638151340622",
        "inclination": "4.835642774618542",
        "ascending_node_longitude": "199.7726985036357",
        "orbital_period": "1121.595102603874",
        "perihelion_distance": "1.046896068810504",
        "perihelion_argument": "101.6998130689126",
        "aphelion_distance": "3.178380233870739",
        "perihelion_time": "2458329.483831982867",
        "mean_anomaly": "13.806961576612",
        "mean_motion": ".3209714442977068",
        "equinox": "J2000",
        "orbit_class": {
            "orbit_class_type": "AMO",
            "orbit_class_description": "Near-Earth asteroid orbits similar to that of 1221 Amor",
            "orbit_class_range": "1.017 AU < q (perihelion) < 1.3 AU"
        }
    },
    "is_sentry_object": false
}